{
  "type": "FeatureCollection",
  "name": "Sundarban Pilot AOI - Gosaba & Satjelia Sector",
  "crs": {
    "type": "name",
    "properties": {
      "name": "urn:ogc:def:crs:OGC:1.3:CRS84"
    }
  },
  "metadata": {
    "title": "Sundarban Pilot Mangrove Monitoring Sector",
    "region": "Gosaba-Satjelia Estuary",
    "status": "PILOT_DEMO_BOUNDARY",
    "disclaimer": "This is a pilot / demonstration boundary for satellite observation testing. It does not represent an official administrative boundary.",
    "spatial_reference": "EPSG:4326 (WGS84)",
    "coordinate_order": "[longitude, latitude]"
  },
  "features": [
    {
      "type": "Feature",
      "id": "aoi_gosaba_satjelia_pilot",
      "properties": {
        "sectorId": "sundarban_pilot_main",
        "name": "Gosaba-Satjelia Pilot Sector",
        "state": "West Bengal",
        "country": "India",
        "ecosystemType": "Tidal Mangrove Forest & Estuarine Delta",
        "approxAreaHa": 2225.0,
        "isPilot": true
      },
      "geometry": {
        "type": "Polygon",
        "coordinates": [
          [
            [88.7850, 22.1400],
            [88.8450, 22.1400],
            [88.8950, 22.1650],
            [88.9200, 22.2050],
            [88.8950, 22.2450],
            [88.8400, 22.2500],
            [88.7900, 22.2300],
            [88.7750, 22.1850],
            [88.7850, 22.1400]
          ]
        ]
      }
    }
  ]
}
